0 IRIDIUM 33 DEB
1 34156U 97051EK  13282.32702725  .00017092  00000-0  49124-2 0  3912
2 34156 086.3166 117.2874 0038957 270.7074 140.0378 14.44297900243024
0 IRIDIUM 33 DEB
1 34156U 97051EK  13283.50075493  .00015082  00000-0  43326-2 0  3924
2 34156 086.3166 116.7778 0038980 266.7130 122.9641 14.44327396243198
0 IRIDIUM 33 DEB
1 34156U 97051EK  13285.80576395  .00012501  00000-0  35883-2 0  3940
2 34156 086.3166 115.7771 0038979 258.8675 228.4373 14.44372917243524
0 IRIDIUM 33 DEB
1 34156U 97051EK  13286.83243178  .00013519  00000-0  38785-2 0  3959
2 34156 086.3162 115.3311 0039042 255.3837 166.9808 14.44394295243678
0 IRIDIUM 33 DEB
1 34156U 97051EK  13288.49527729  .00021819  00000-0  62476-2 0  3967
2 34156 086.3156 114.6087 0039082 249.8179 173.6989 14.44451669243915
0 IRIDIUM 33 DEB
1 34156U 97051EK  13289.75479262  .00021512  00000-0  61552-2 0  3970
2 34156 086.3155 114.0617 0039170 245.6596 243.2967 14.44486473244093
0 IRIDIUM 33 DEB
1 34156U 97051EK  13291.07411439  .00016706  00000-0  47780-2 0  3987
2 34156 086.3153 113.4884 0039220 241.2606 264.1070 14.44530029244285
0 IRIDIUM 33 DEB
1 34156U 97051EK  13292.51082726  .00017420  00000-0  49771-2 0  3997
2 34156 086.3158 112.8644 0039342 236.4331 175.6447 14.44573008244494
0 IRIDIUM 33 DEB
1 34156U 97051EK  13293.82948215  .00019304  00000-0  55103-2 0  4008
2 34156 086.3165 112.2914 0039341 232.8645 192.5632 14.44608027244688
0 IRIDIUM 33 DEB
1 34156U 97051EK  13295.01879524  .00020032  00000-0  57130-2 0  4010
2 34156 086.3166 111.7748 0039493 228.9888 257.7320 14.44645764244857
0 IRIDIUM 33 DEB
1 34156U 97051EK  13296.06043111  .00021808  00000-0  62132-2 0  4022
2 34156 086.3167 111.3225 0039557 225.7164 274.8961 14.44683944245008
